{
    "links": {
        "self": "http://www.neowsapp.com/rest/v1/neo/3289175?api_key=iIulBulltgU6a56xZRHN4H3l9WmuAYTsLGpBGhQ2"
    },
    "id": "3289175",
    "neo_reference_id": "3289175",
    "name": "(2005 QF88)",
    "designation": "2005 QF88",
    "nasa_jpl_url": "http://ssd.jpl.nasa.gov/sbdb.cgi?sstr=3289175",
    "absolute_magnitude_h": 20.7,
    "estimated_diameter": {
        "kilometers": {
            "estimated_diameter_min": 0.1925550782,
            "estimated_diameter_max": 0.4305662442
        },
        "meters": {
            "estimated_diameter_min": 192.5550781879,
            "estimated_diameter_max": 430.566244241
        },
        "miles": {
            "estimated_diameter_min": 0.1196481415,
            "estimated_diameter_max": 0.2675413778
        },
        "feet": {
            "estimated_diameter_min": 631.7424027221,
            "estimated_diameter_max": 1412.6189567557
        }
    },
    "is_potentially_hazardous_asteroid": false,
    "close_approach_data": [
        {
            "close_approach_date": "1944-09-19",
            "close_approach_date_full": "1944-Sep-19 18:59",
            "epoch_date_close_approach": -797835660000,
            "relative_velocity": {
                "kilometers_per_second": "5.0133544372",
                "kilometers_per_hour": "18048.0759739643",
                "miles_per_hour": "11214.3725406002"
            },
            "miss_distance": {
                "astronomical": "0.2540303116",
                "lunar": "98.8177912124",
                "kilometers": "38002393.530796292",
                "miles": "23613592.3632091496"
            },
            "orbiting_body": "Earth"
        },
        {
            "close_approach_date": "1988-09-11",
            "close_approach_date_full": "1988-Sep-11 10:51",
            "epoch_date_close_approach": 589978260000,
            "relative_velocity": {
                "kilometers_per_second": "5.7092373921",
                "kilometers_per_hour": "20553.2546114503",
                "miles_per_hour": "12770.9931223204"
            },
            "miss_distance": {
                "astronomical": "0.3293634031",
                "lunar": "128.1223638059",
                "kilometers": "49272063.559711397",
                "miles": "30616240.6020633986"
            },
            "orbiting_body": "Earth"
        },
        {
            "close_approach_date": "2005-09-19",
            "close_approach_date_full": "2005-Sep-19 14:23",
            "epoch_date_close_approach": 1127139780000,
            "relative_velocity": {
                "kilometers_per_second": "4.9101954719",
                "kilometers_per_hour": "17676.7036988176",
                "miles_per_hour": "10983.6162510792"
            },
            "miss_distance": {
                "astronomical": "0.2289793363",
                "lunar": "89.0729618207",
                "kilometers": "34254820.984493681",
                "miles": "21284958.7631115578"
            },
            "orbiting_body": "Earth"
        },
        {
            "close_approach_date": "2049-09-14",
            "close_approach_date_full": "2049-Sep-14 20:15",
            "epoch_date_close_approach": 2515263300000,
            "relative_velocity": {
                "kilometers_per_second": "5.2886788934",
                "kilometers_per_hour": "19039.2440162849",
                "miles_per_hour": "11830.2458166743"
            },
            "miss_distance": {
                "astronomical": "0.2756753973",
                "lunar": "107.2377295497",
                "kilometers": "41240452.247483751",
                "miles": "25625628.7503917238"
            },
            "orbiting_body": "Earth"
        },
        {
            "close_approach_date": "2110-09-21",
            "close_approach_date_full": "2110-Sep-21 02:45",
            "epoch_date_close_approach": 4440710700000,
            "relative_velocity": {
                "kilometers_per_second": "4.9167639788",
                "kilometers_per_hour": "17700.3503236607",
                "miles_per_hour": "10998.3093441658"
            },
            "miss_distance": {
                "astronomical": "0.2161432416",
                "lunar": "84.0797209824",
                "kilometers": "32334568.558255392",
                "miles": "20091769.2343807296"
            },
            "orbiting_body": "Earth"
        }
    ],
    "orbital_data": {
        "orbit_id": "21",
        "orbit_determination_date": "2017-04-06 09:10:35",
        "first_observation_date": "2005-08-31",
        "last_observation_date": "2005-11-12",
        "data_arc_in_days": 73,
        "observations_used": 110,
        "orbit_uncertainty": "5",
        "minimum_orbit_intersection": ".21909",
        "jupiter_tisserand_invariant": "3.468",
        "epoch_osculation": "2459000.5",
        "eccentricity": ".4580520882091887",
        "semi_major_axis": "2.256415935277895",
        "inclination": "7.008639263237117",
        "ascending_node_longitude": "180.2051214283497",
        "orbital_period": "1238.018584339972",
        "perihelion_distance": "1.222859904255366",
        "perihelion_argument": "176.4666870660748",
        "aphelion_distance": "3.289971966300425",
        "perihelion_time": "2458576.838446300905",
        "mean_anomaly": "123.1953714273091",
        "mean_motion": ".2907872341770442",
        "equinox": "J2000",
        "orbit_class": {
            "orbit_class_type": "AMO",
            "orbit_class_description": "Near-Earth asteroid orbits similar to that of 1221 Amor",
            "orbit_class_range": "1.017 AU < q (perihelion) < 1.3 AU"
        }
    },
    "is_sentry_object": false
}